NORAD_CAT_ID,OBJECT_NAME,OBJECT_TYPE,EPOCH,MEAN_MOTION,ECCENTRICITY,INCLINATION,RA_OF_ASC_NODE,ARG_OF_PERICENTER,MEAN_ANOMALY,BSTAR,MEAN_MOTION_DOT,MEAN_MOTION_DDOT,TLE_LINE0,TLE_LINE1,TLE_LINE2,SEMIMAJOR_AXIS,PERIOD,APOGEE,PERIGEE,DECAYED
52574.0,STARLINK-3901,PAYLOAD,2022-12-16 18:07:54,15.08832219,0.0002442,53.2161,11.5697,39.1376,320.9793,0.00029153,4.354e-05,0.0,0 STARLINK-3901,1 52574U 22051AQ  22350.75549490  .00004354  00000-0  29153-3 0  9997,2 52574  53.2161  11.5697 0002442  39.1376 320.9793 15.08832219 33607,6917.904,95.438,541.4590000000002,538.08,0.0
52574.0,STARLINK-3901,PAYLOAD,2022-12-17 11:37:09,15.08847798,0.0002344,53.2161,8.2994,44.7276,315.3905,0.00062993,9.754e-05,0.0,0 STARLINK-3901,1 52574U 22051AQ  22351.48413422  .00009754  00000-0  62993-3 0  9991,2 52574  53.2161   8.2994 0002344  44.7276 315.3905 15.08847798 33715,6917.857,95.437,541.3430000000002,538.1,0.0
52574.0,STARLINK-3901,PAYLOAD,2022-12-17 17:58:41,15.08836294,0.0001862,53.2162,7.1103,44.49,315.6242,7.329399999999999e-05,8.78e-06,0.0,0 STARLINK-3901,1 52574U 22051AQ  22351.74909512  .00000878  00000-0  73294-4 0  9995,2 52574  53.2162   7.1103 0001862  44.4900 315.6242 15.08836294 33829,6917.892,95.438,541.045,538.469,0.0
52574.0,STARLINK-3901,PAYLOAD,2022-12-18 11:27:56,15.08850151,0.0002251,53.2154,3.839,48.3011,311.8173,0.00065319,0.00010126,0.0,0 STARLINK-3901,1 52574U 22051AQ  22352.47773596  .00010126  00000-0  65319-3 0  9992,2 52574  53.2154   3.8390 0002251  48.3011 311.8173 15.08850151 33863,6917.849,95.437,541.2719999999998,538.1569999999998,0.0
52574.0,STARLINK-3901,PAYLOAD,2022-12-18 17:49:29,15.0884439,0.0002168,53.2153,2.6496,50.537,309.5814,0.0005006,7.689e-05,0.0,0 STARLINK-3901,1 52574U 22051AQ  22352.74269796  .00007689  00000-0  50060-3 0  9991,2 52574  53.2153   2.6496 0002168  50.5370 309.5814 15.08844390 33905,6917.8669999999975,95.437,541.232,538.232,0.0
52574.0,STARLINK-3901,PAYLOAD,2022-12-19 04:57:10,15.08853567,0.0002068,53.215,0.5681,52.1139,308.0039,0.00078325,0.00012204,0.0,0 STARLINK-3901,1 52574U 22051AQ  22353.20637669  .00012204  00000-0  78325-3 0  9994,2 52574  53.2150   0.5681 0002068  52.1139 308.0039 15.08853567 34040,6917.839,95.437,541.135,538.273,0.0
52574.0,STARLINK-3901,PAYLOAD,2022-12-19 06:32:34,15.08855428,0.0002083,53.215,0.2707,53.0165,307.1017,0.00079115,0.00012331,0.0,0 STARLINK-3901,1 52574U 22051AQ  22353.27261608  .00012331  00000-0  79115-3 0  9996,2 52574  53.2150   0.2707 0002083  53.0165 307.1017 15.08855428 33988,6917.833000000001,95.437,541.139,538.257,0.0
52574.0,STARLINK-3901,PAYLOAD,2022-12-20 00:01:48,15.08853666,0.0002068,53.2146,356.9994,64.0594,296.0611,0.00073926,0.00011501,0.0,0 STARLINK-3901,1 52574U 22051AQ  22354.00125588  .00011501  00000-0  73926-3 0  9996,2 52574  53.2146 356.9994 0002068  64.0594 296.0611 15.08853666 34162,6917.839,95.437,541.134,538.273,0.0
52574.0,STARLINK-3901,PAYLOAD,2022-12-20 07:58:44,15.08853745,0.0002075,53.2145,355.5124,59.25100000000001,300.8686,0.00060653,9.382e-05,0.0,0 STARLINK-3901,1 52574U 22051AQ  22354.33245459  .00009382  00000-0  60653-3 0  9999,2 52574  53.2145 355.5124 0002075  59.2510 300.8686 15.08853745 34145,6917.8380000000025,95.437,541.139,538.268,0.0
52574.0,STARLINK-3901,PAYLOAD,2022-12-20 17:31:03,15.08844321,0.0002195,53.2145,353.72900000000016,63.4365,296.6852,0.0004419,6.753e-05,0.0,0 STARLINK-3901,1 52574U 22051AQ  22354.72989710  .00006753  00000-0  44190-3 0  9994,2 52574  53.2145 353.7290 0002195  63.4365 296.6852 15.08844321 34278,6917.8669999999975,95.437,541.251,538.214,0.0
52574.0,STARLINK-3901,PAYLOAD,2022-12-21 06:14:08,15.08834091,0.0002271,53.2159,351.3488,67.5603,292.563,0.00029295,4.376e-05,0.0,0 STARLINK-3901,1 52574U 22051AQ  22355.25982165  .00004376  00000-0  29295-3 0  9998,2 52574  53.2159 351.3488 0002271  67.5603 292.5630 15.08834091 34352,6917.898,95.438,541.335,538.192,0.0
52574.0,STARLINK-3901,PAYLOAD,2022-12-22 06:04:55,15.08846748,0.0002134,53.2153,346.8877,71.602,288.5204,0.00060483,9.353e-05,0.0,0 STARLINK-3901,1 52574U 22051AQ  22356.25342289  .00009353  00000-0  60483-3 0  9990,2 52574  53.2153 346.8877 0002134  71.6020 288.5204 15.08846748 34437,6917.86,95.437,541.201,538.248,0.0
52574.0,STARLINK-3901,PAYLOAD,2022-12-22 23:34:09,15.08869184,0.0002152,53.2153,343.6159,73.6223,286.5006,0.00080248,0.00012517,0.0,0 STARLINK-3901,1 52574U 22051AQ  22356.98205221  .00012517  00000-0  80248-3 0  9991,2 52574  53.2153 343.6159 0002152  73.6223 286.5006 15.08869184 34619,6917.791,95.436,541.145,538.1669999999998,0.0
52574.0,STARLINK-3901,PAYLOAD,2022-12-23 05:55:41,15.08858961,0.000207,53.2159,342.4258,69.2833,290.838,0.00031503,4.732e-05,0.0,0 STARLINK-3901,1 52574U 22051AQ  22357.24701031  .00004732  00000-0  31503-3 0  9991,2 52574  53.2159 342.4258 0002070  69.2833 290.8380 15.08858961 34657,6917.821999999999,95.436,541.119,538.255,0.0
52574.0,STARLINK-3901,PAYLOAD,2022-12-23 09:06:27,15.08856158,0.0001957,53.2159,341.8335,67.0614,293.0585,0.00023915,3.522e-05,0.0,0 STARLINK-3901,1 52574U 22051AQ  22357.37948919  .00003522  00000-0  23915-3 0  9997,2 52574  53.2159 341.8335 0001957  67.0614 293.0585 15.08856158 34605,6917.831,95.437,541.05,538.342,0.0
52574.0,STARLINK-3901,PAYLOAD,2022-12-23 23:24:55,15.08851374,0.0002033,53.2163,339.1565,71.9878,288.1335,7.8982e-05,9.69e-06,0.0,0 STARLINK-3901,1 52574U 22051AQ  22357.97564702  .00000969  00000-0  78982-4 0  9994,2 52574  53.2163 339.1565 0002033  71.9878 288.1335 15.08851374 34767,6917.846,95.437,541.117,538.304,0.0
52574.0,STARLINK-3901,PAYLOAD,2022-12-24 07:21:51,15.08854057,0.0001617,53.2152,337.6669,60.5916,299.5237,6.6184e-05,7.66e-06,0.0,0 STARLINK-3901,1 52574U 22051AQ  22358.30684292  .00000766  00000-0  66184-4 0  9995,2 52574  53.2152 337.6669 0001617  60.5916 299.5237 15.08854057 34743,6917.837,95.437,540.821,538.5840000000002,0.0
52574.0,STARLINK-3901,PAYLOAD,2022-12-24 15:18:47,15.08844419,0.0001809,53.2145,336.1812,65.8134,294.3047,-8.413200000000001e-05,-1.627e-05,0.0,0 STARLINK-3901,1 52574U 22051AQ  22358.63804608 -.00001627  00000-0 -84132-4 0  9998,2 52574  53.2145 336.1812 0001809  65.8134 294.3047 15.08844419 34868,6917.8669999999975,95.437,540.9830000000002,538.48,0.0
52574.0,STARLINK-3901,PAYLOAD,2022-12-25 07:12:39,15.08838056,0.0001774,53.2162,333.2098,70.5426,289.5758,-1.1455e-05,-4.7e-06,0.0,0 STARLINK-3901,1 52574U 22051AQ  22359.30045256 -.00000470  00000-0 -11455-4 0  9992,2 52574  53.2162 333.2098 0001774  70.5426 289.5758 15.08838056 34965,6917.886,95.438,540.979,538.524,0.0
52574.0,STARLINK-3901,PAYLOAD,2022-12-25 10:23:25,15.08837393,0.0001813,53.2165,332.6153,72.2657,287.8533,-2.156e-05,-6.31e-06,0.0,0 STARLINK-3901,1 52574U 22051AQ  22359.43293320 -.00000631  00000-0 -21560-4 0  9990,2 52574  53.2165 332.6153 0001813  72.2657 287.8533 15.08837393 34912,6917.888000000001,95.438,541.008,538.499,0.0
52574.0,STARLINK-3901,PAYLOAD,2022-12-26 08:38:49,15.08840874,0.0001688,53.2162,328.4508,65.9895,294.1273,2.6789e-05,1.38e-06,0.0,0 STARLINK-3901,1 52574U 22051AQ  22360.36029398  .00000138  00000-0  26789-4 0  9994,2 52574  53.2162 328.4508 0001688  65.9895 294.1273 15.08840874 35055,6917.878000000002,95.437,540.91,538.575,0.0
52574.0,STARLINK-3901,PAYLOAD,2022-12-26 15:00:21,15.08840254,0.0001694,53.2157,327.2619,67.6114,292.5058,0.00012085,1.636e-05,0.0,0 STARLINK-3901,1 52574U 22051AQ  22360.62525253  .00001636  00000-0  12085-3 0  9991,2 52574  53.2157 327.2619 0001694  67.6114 292.5058 15.08840254 35166,6917.88,95.438,540.9169999999998,538.573,0.0
52574.0,STARLINK-3901,PAYLOAD,2022-12-26 22:57:17,15.08834834,0.0001636,53.2158,325.7748,65.8806,294.2357,0.00012743,1.74e-05,0.0,0 STARLINK-3901,1 52574U 22051AQ  22360.95645718  .00001740  00000-0  12743-3 0  9993,2 52574  53.2158 325.7748 0001636  65.8806 294.2357 15.08834834 35211,6917.896,95.438,540.893,538.629,0.0
52574.0,STARLINK-3901,PAYLOAD,2022-12-28 06:44:59,15.08855341,0.00016,53.2161,319.8266,65.5947,294.5212,0.00017453,2.492e-05,0.0,0 STARLINK-3901,1 52574U 22051AQ  22362.28123947  .00002492  00000-0  17453-3 0  9994,2 52574  53.2161 319.8266 0001600  65.5947 294.5212 15.08855341 35341,6917.833000000001,95.437,540.805,538.592,0.0
52574.0,STARLINK-3901,PAYLOAD,2022-12-29 03:25:01,15.08830088,0.0001230999999999,53.2155,315.9604,65.1053,295.0067,-0.00011132,-2.059e-05,0.0,0 STARLINK-3901,1 52574U 22051AQ  22363.14237489 -.00002059  00000-0 -11132-3 0  9996,2 52574  53.2155 315.9604 0001231  65.1053 295.0067 15.08830088 35548,6917.911,95.438,540.627,538.924,0.0
52574.0,STARLINK-3901,PAYLOAD,2022-12-29 06:35:47,15.08832666,0.0001283,53.2158,315.3632,76.6404,283.4731,-0.00013214,-2.39e-05,0.0,0 STARLINK-3901,1 52574U 22051AQ  22363.27485397 -.00002390  00000-0 -13214-3 0  9994,2 52574  53.2158 315.3632 0001283  76.6404 283.4731 15.08832666 35497,6917.903,95.438,540.655,538.88,0.0
52574.0,STARLINK-3901,PAYLOAD,2022-12-30 06:26:34,15.08844729,0.0001403,53.2149,310.9044,79.6749,280.4401,0.00028433,4.241e-05,0.0,0 STARLINK-3901,1 52574U 22051AQ  22364.26845496  .00004241  00000-0  28433-3 0  9998,2 52574  53.2149 310.9044 0001403  79.6749 280.4401 15.08844729 35713,6917.866,95.437,540.702,538.76,0.0
52574.0,STARLINK-3901,PAYLOAD,2022-12-31 06:17:20,15.08872642,0.0001571999999999,53.2144,306.4449,67.2298,292.886,0.00058438,9.033e-05,0.0,0 STARLINK-3901,1 52574U 22051AQ  22365.26204445  .00009033  00000-0  58438-3 0  9994,2 52574  53.2144 306.4449 0001572  67.2298 292.8860 15.08872642 35863,6917.781,95.435,540.7330000000002,538.558,0.0
52574.0,STARLINK-3901,PAYLOAD,2022-12-31 20:35:48,15.08865199,0.000174,53.2154,303.7671,70.2482,289.8698,0.00037967,5.764e-05,0.0,0 STARLINK-3901,1 52574U 22051AQ  22365.85819882  .00005764  00000-0  37967-3 0  9997,2 52574  53.2154 303.7671 0001740  70.2482 289.8698 15.08865199 35951,6917.803000000001,95.436,540.872,538.465,0.0
